siteid,area[km2],lat_centroid,lat_outlet,lon_centroid,lon_outlet,name,seasrain_climate_class,sources,state,area_corrected[km2],lon_outlet_corrected,lat_outlet_corrected,comment,area_dem[km2],lon_outlet_dem,lat_outlet_dem,lon_centroid_dem,lat_centroid_dem,alt_outlet_dem,mean_pathlength[km],max_pathlength[km],mean_altitude_dem[m],min_altitude_dem[m],max_altitude_dem[m],ga_basin_name
225201,1485,,-37.96859,,147.07601,Avon River At Stratford,,bjp|flood,VIC,1485,147.07601,-37.96859,,1426.85642,147.0725,-37.965,146.96163,-37.70472,56.29373,60.07886,102.27864,623.29767,37.89378,1669.66101,THOMSON RIVER
225213,312.47157,-37.73329,-37.854,146.44891,146.43,Aberfeldy River at Beardmore,,wfs|awral|bjp|jv|flood|kennard,VIC,312.47157,146.43,-37.854,,306.85264,146.4325,-37.855,146.45016,-37.73454,654.76331,23.84359,43.7132,947.35565,458.51071,1455.33899,THOMSON RIVER
225219,570.36372,-37.35482,-37.516,146.63604,146.57,Macalister River at Glencairn,,awral|jv|hrs|flood|kennard,VIC,570.36372,146.57,-37.516,,560.61557,146.5675,-37.5125,146.63739,-37.35583,597.62268,31.79328,55.73661,1161.2749,443.51221,1719.96997,THOMSON RIVER
226023,179.37,-38.32143,-38.19405,146.53571,146.54393,Traralgon Creek at Traralgon,,wfs|bjp|flood,VIC,179.37,146.54393,-38.19405,,173.04301,146.545,-38.1975,146.537,-38.33245,132.8783,19.83331,38.38777,98.29144,21.12475,453.4996,LATROBE RIVER
226204,557.46183,-37.89414,-38.089,145.99674,146.16,Latrobe River at Willow Grove,,wfs|awral|bjp|jv|flood|kennard,VIC,557.46183,146.16,-38.089,,545.3955,146.16,-38.0875,145.9976,-37.8949,291.43661,43.46318,71.81163,564.75507,139.0636,1248.07495,LATROBE RIVER
226218,66.20695,-38.2758,-38.27192,146.1401,146.18653,Narracan Ck at Thorpdale,,jv|flood,VIC,66.20695,146.18653,-38.27192,,61.44897,146.185,-38.2725,146.1439,-38.27598,57.26716,6.88423,15.79724,72.92135,47.79678,166.40421,LATROBE RIVER
226222,65.23829,-37.88296,-37.882,145.83087,145.89,Latrobe River at Near Noojee,,awral|hrs,VIC,65.23829,145.89,-37.882,,60.67574,145.8875,-37.885,145.8309,-37.88408,637.97711,8.76036,16.46785,584.96167,265.08511,879.91638,LATROBE RIVER
226226,299.37475,-37.874,-37.98,146.17535,146.19,Tanjil River at Tanjil Junction,,wfs|awral|bjp|flood|kennard,VIC,299.37475,146.19,-37.98,,293.45225,146.195,-37.98,146.1766,-37.87525,339.17651,19.41171,45.54259,864.66077,312.6702,1457.30005,LATROBE RIVER
226402,607.73698,-38.14859,-38.176,146.03395,146.21,Moe Drain @ Trafalgar East,,wfs|awral|bjp|flood,VIC,607.73698,146.21,-38.176,,590.97008,146.21,-38.1825,146.03257,-38.14894,136.8609,29.07524,56.76058,191.08739,61.04971,594.4613,LATROBE RIVER
227200,223.2494,-38.46431,-38.538,146.65543,146.68,Tarra R at Yarram,,awral|jv,VIC,223.2494,146.68,-38.538,,216.40096,146.68,-38.535,146.65655,-38.46487,256.90109,14.85651,29.71743,315.3833,110.7199,679.69873,SOUTH GIPPSLAND
227202,1071.24804,-38.44838,-38.582,146.03649,145.99,Tarwin at Meeniyan,,awral|jv,VIC,1071.24804,145.99,-38.582,,1069.06278,145.9925,-38.5825,146.03774,-38.44963,38.83427,33.79246,70.37508,193.55846,36.62532,506.72159,SOUTH GIPPSLAND
227211,64.87122,-38.57635,-38.64,146.36019,146.37,Agnes at Toora,,awral|jv,VIC,64.87122,146.37,-38.64,,61.21015,146.37,-38.6375,146.36141,-38.57743,401.4816,14.36148,24.74535,324.37869,140.32961,535.2168,SOUTH GIPPSLAND
227219,57.53009,-38.37787,-38.358,145.78186,145.72,Bass River at Loch,,awral|jv|kennard,VIC,57.53009,145.72,-38.358,,54.48332,145.7225,-38.3575,145.78311,-38.37912,49.35529,10.67399,18.92019,96.59119,48.03441,184.6597,SOUTH GIPPSLAND
227226,129.6872,-38.50526,-38.5,146.22753,146.16,Tarwin River East Branch  at Dumbalk North,,awral|hrs|kennard,VIC,129.6872,146.16,-38.5,,125.36556,146.1625,-38.5,146.22878,-38.50651,227.45039,14.90963,27.92753,196.65355,67.56131,359.94199,SOUTH GIPPSLAND
227231,240.21713,-38.40466,-38.467,145.6723,145.51,Glen Forbes South,,awral,VIC,240.21713,145.51,-38.467,,234.3315,145.5125,-38.4675,145.67355,-38.40591,-9999,25.3121,49.63368,73.68965,0,184.6597,SOUTH GIPPSLAND
227236,225.40001,-38.49352,-38.559,145.76462,145.71,Powlett River at DS Foster Creek Junction,,awral|kennard,VIC,225.40001,145.71,-38.559,,221.6511,145.7125,-38.56,145.76588,-38.49478,143.588,14.24812,27.61027,171.04454,61.59185,347.90591,SOUTH GIPPSLAND
227237,75.25661,-38.58933,-38.63,146.29342,146.31,Franklin River at Toora,,awral|kennard,VIC,75.25661,146.31,-38.63,,71.25728,146.3125,-38.63,146.29467,-38.59058,369.17419,11.70472,23.47152,278.89417,86.18309,460.54471,SOUTH GIPPSLAND
228203,165.58891,-38.0198,-38.0333,145.3021,145.221,Eumemmerring Creek @ Lyndhurst,,jv|flood,VIC,165.58891,145.221,-38.0333,,147.87433,145.21,-38.04,145.30379,-38.01709,81.86239,16.02001,31.19346,154.77652,17.86833,589.31519,BUNYIP RIVER
229214,144.183,,-37.781,,145.616,Little Yarra River at Yarra Junction,,flood|kennard,VIC,144.183,145.616,-37.781,,139.27026,145.6175,-37.7825,145.70644,-37.83867,675.90833,15.57229,29.20954,530.07574,127.3961,1250.35498,YARRA RIVER
229215,330.8176,-37.8808,-37.7649,145.5151,145.512,Woori Yallock Ck at Woori Yallock Ck,,jv|flood,VIC,330.8176,145.512,-37.7649,,318.33199,145.5125,-37.7675,145.51705,-37.87998,121.6682,22.46139,39.45122,172.4938,77.47244,739.38409,YARRA RIVER
229661,54.5162,-37.60374,-37.6337,145.95547,145.9268,Walshes Creek at RD 1,,awral|hrs,,54.5162,145.9268,-37.6337,,50.94751,145.93,-37.635,145.95675,-37.60496,749.55481,8.45982,14.19797,738.81482,514.76941,1215.29395,YARRA RIVER
230205,858.74237,-37.38469,-37.632,144.77882,144.8,Maribyrnong River @  Bulla,,awral|jv|flood,VIC,858.74237,144.8,-37.632,,856.6791,144.8025,-37.635,144.77973,-37.38654,266.84009,58.4302,118.29782,441.39331,198.2652,806.65619,MARIBYRNONG RIVER
230211,94.64833,-37.39803,-37.466,144.69686,144.74,Clarkefield,,awral,VIC,94.64833,144.74,-37.466,,90.53939,144.7375,-37.465,144.69794,-37.39901,479.38339,11.77982,22.68585,518.14417,445.40451,634.9826,MARIBYRNONG RIVER
231211,235.39574,-37.48647,-37.63,144.34425,144.43,Lerderderg River at upstream of Goodman Creek,,wfs|awral|bjp|flood,VIC,235.39574,144.43,-37.63,,227.19433,144.43,-37.6275,144.3455,-37.48772,559.68127,26.93355,48.07389,660.68884,477.86761,824.91718,WERRIBEE RIVER
231213,152.14593,-37.45551,-37.497,144.32182,144.36,Lerderderg River at Sardine Creek O'Brien Crossing,,wfs|awral|bjp|jv|hrs|flood|kennard,VIC,152.14593,144.36,-37.497,,145.8987,144.3625,-37.495,144.323,-37.4567,742.84698,12.03352,26.3841,655.87695,514.02789,824.91718,WERRIBEE RIVER
234200,316.90179,-37.66849,-37.809,143.64938,143.59,Woady Yaloak River at Pitfield,,wfs|awral|jv|kennard,VIC,316.90179,143.59,-37.809,,307.22874,143.5875,-37.8075,143.65086,-37.66913,342.03049,28.13314,53.92697,403.01889,305.16571,489.71078,LAKE CORANGAMITE
234201,1166.51346,-37.79797,-38.012,143.64422,143.64,Cressy (Yarima),,awral,VIC,1166.51346,143.64,-38.012,,1160.84539,143.6425,-38.0125,143.64547,-37.79922,162.2146,39.96631,87.52511,339.95175,160.9502,511.2305,LAKE CORANGAMITE
235203,721.29892,-38.42503,-38.445,143.11774,142.96,Curdies River (Curdie),,awral|jv|flood,VIC,750.5,142.9599,-38.4499,Adjusting catchment area and coordinates to match site location,718.35267,142.9625,-38.4475,143.11899,-38.42628,132.44099,32.4871,70.5017,131.46024,17.38674,309.38501,OTWAY COAST
235210,53.85876,-38.58882,-38.535,143.58783,143.54,Lardner Creek at Gellibrand,,awral|kennard,VIC,56.2,143.5476,-38.5349,Adjusting catchment area and coordinates to match site location,51.06064,143.5475,-38.535,143.58908,-38.59006,235.1913,9.76939,16.63057,167.43889,76.6104,308.33179,OTWAY COAST
235211,263.69771,-38.49784,-38.588,143.32173,143.26,Kennedys Creek at Kennedys Creek,,awral|jv|kennard,VIC,263.69771,143.26,-38.588,,256.61759,143.2625,-38.585,143.3232,-38.49881,131.5298,22.29358,49.23266,144.8969,77.05727,202.9772,OTWAY COAST
235219,89.335,,-38.701,,143.476,Aire River at Wyelangta,,kennard,VIC,89.335,143.476,-38.701,,85.78933,143.4775,-38.7025,143.54574,-38.66372,163.81709,11.60281,24.17005,169.28647,70.86685,347.24551,OTWAY COAST
235234,76.63825,-38.48206,-38.483,143.60797,143.57,Love Creek at Gellibrand,,wfs|awral|kennard,VIC,76.63825,143.57,-38.483,,72.41243,143.5725,-38.485,143.60922,-38.48331,199.8302,8.88837,18.13452,186.80119,113.2315,274.7326,OTWAY COAST
236203,1203.966,-37.4918,-37.6877,143.5531,143.36007,Mount Emu Creek At Skipton,,jv|flood,VIC,1203.966,143.36007,-37.6877,,1228.36342,143.3625,-37.6875,143.54898,-37.49297,357.0575,58.7015,95.62833,407.95599,276.06189,721.29437,HOPKINS RIVER
236205,893.07088,-38.11713,-38.316,142.46841,142.48,Merri River at Woodford,,wfs|awral|jv|flood,VIC,893.07088,142.48,-38.316,,888.46106,142.485,-38.32,142.46966,-38.11838,38.38568,45.0764,92.61225,150.8867,34.38575,340.7045,HOPKINS RIVER
236212,225.44875,-38.38045,-38.346,142.81255,142.65,Brucknell Creek at Cudgee,,awral|jv|kennard,VIC,225.44875,142.65,-38.346,,218.45287,142.6525,-38.3475,142.8138,-38.3817,78.23569,23.22611,52.31614,104.93645,38.00998,215.44231,HOPKINS RIVER
236213,448.3,-37.41034,-37.53114,143.47759,143.46511,Mount Emu Creek at Mena Park,,wfs|bjp|hrs|flood,VIC,448.3,143.46511,-37.53114,,439.09304,143.4675,-37.5325,143.48651,-37.4118,374.7901,25.00843,44.33616,396.14075,276.06189,635.27301,HOPKINS RIVER
237200,593.30354,-38.1388,-38.31991,142.2511,142.22643,Moyne R at Toolong,,jv|flood,VIC,593.30354,142.22643,-38.31991,,557.28481,142.235,-38.33,142.25137,-38.13811,50.42634,34.07872,71.89059,150.87688,48.19563,239.9996,PORTLAND COAST
237202,268.08153,-38.08967,-38.126,141.49755,141.62,Heywood,,awral,VIC,268.08153,141.62,-38.126,,260.51595,141.6175,-38.125,141.49829,-38.09077,135.3416,18.46329,38.20531,99.33048,20.8751,168.9944,PORTLAND COAST
237205,713.65818,-37.94639,-38.15,141.88375,141.77,Darlot Creek at Homerton Bridge,,wfs|awral|bjp|jv|flood,VIC,713.65818,141.77,-38.15,,706.9799,141.7725,-38.15,141.885,-37.94764,79.98335,41.57417,75.28794,137.07509,53.02867,289.0108,PORTLAND COAST
237206,473.95407,-38.03446,-38.258,142.05583,141.94,Eumeralla at Codrington,,awral|jv,VIC,430.6,141.9451,-38.2599,Adjusting catchment area and coordinates to match site location,411.15278,141.945,-38.26,142.01818,-38.06928,40.79753,35.23622,68.78399,143.52689,36.63805,438.5549,PORTLAND COAST
238204,384.91745,-37.48371,-37.631,142.47116,142.34,Dunkeld,,wfs|awral,VIC,396.5,142.3416,-37.6299,Adjusting catchment area and coordinates to match site location,374.15461,142.3425,-37.63,142.47241,-37.48496,253.1423,32.53546,64.19657,410.4866,222.181,1069.68506,GLENELG RIVER
238223,180.18579,-37.43294,-37.496,141.54441,141.43,Wando River At Wando Vale,,wfs|awral|bjp|jv|flood|kennard,VIC,180.18579,141.43,-37.496,,171.22088,141.4275,-37.4925,141.54608,-37.43397,219.9742,25.01413,48.83983,213.40916,135.1431,279.99649,GLENELG RIVER
238229,69.00256,-37.3675,-37.321,141.54786,141.48,Chetwynd River at Chetwynd,,awral|kennard,VIC,69.00256,141.48,-37.321,,64.99784,141.4825,-37.3225,141.54911,-37.36875,89.60128,12.53444,23.6819,169.96591,89.60128,222.3718,GLENELG RIVER
238231,53.96496,-37.34427,-37.312,142.32903,142.37,Glenelg River at Big Cord,,awral|kennard,VIC,53.96496,142.37,-37.312,,50.72338,142.3675,-37.3125,142.33028,-37.34552,220.2296,7.78004,15.26142,452.25412,212.9548,868.12811,GLENELG RIVER
238235,600.79415,-37.9082,-37.98,141.62885,141.46,Crawford River at Lower Crawford,,awral|kennard,VIC,600.79415,141.46,-37.98,,593.04373,141.46,-37.9825,141.6301,-37.90945,142.46989,35.83041,70.28794,133.21933,38.15488,199.9706,GLENELG RIVER
401009,215.82541,-35.86786,-35.93,148.20763,148.1,Maragle Creek at Maragle,,wfs|awral|bjp|hrs|kennard,NSW,215.82541,148.1,-35.93,,208.55919,148.1025,-35.9275,148.20821,-35.86953,766.61041,19.23199,36.9594,1029.54907,603.94592,1438.86206,UPPER MURRAY RIVER
401012,1257.31124,-36.63632,-36.3207,148.09516,148.0507,Murray River at Biggara,,wfs|awral|bjp|hrs|flood|kennard|selected,NSW,1257.31124,148.0507,-36.3207,,1238.36529,148.0525,-36.32,148.09641,-36.63757,303.9454,61.46808,118.90103,975.00464,278.97321,2228.33008,UPPER MURRAY RIVER
401013,395.0314,-35.77409,-35.8972,147.69605,147.6917,Jingellic Creek above Jingellic,,wfs|awral|bjp|kennard,NSW,395.0314,147.6917,-35.8972,,381.78821,147.6925,-35.895,147.69738,-35.77454,358.31,25.6019,44.13396,480.05606,311.9758,739.89539,UPPER MURRAY RIVER
401015,289.8831,-35.89479,-35.9191,146.93761,146.9738,Bowna Creek at Yambla,,wfs|awral|hrs,NSW,289.8831,146.9738,-35.9191,,279.29067,146.975,-35.9175,146.93992,-35.8962,249.2579,13.22278,26.36436,257.23785,203.5222,508.1933,UPPER MURRAY RIVER
401203,1518.7804,-37.02542,-36.9476,147.44381,147.6074,Mitta Mitta River at Hinnomunjie,,wfs|awral|bjp|hrs|flood,VIC,1518.7804,147.6074,-36.9476,,1502.80019,147.6075,-36.95,147.44506,-37.02667,814.72791,38.02824,77.08123,1084.23645,505.9191,1968.82202,UPPER MURRAY RIVER
401208,351.29039,-36.23949,-36.212,147.61135,147.68,Cudgewa Creek at Berringama,,wfs|awral|bjp|hrs|flood|kennard,VIC,351.29039,147.68,-36.212,,340.12883,147.6775,-36.215,147.61252,-36.24077,967.81262,16.00432,28.72138,612.92578,262.77261,1275.40002,UPPER MURRAY RIVER
401210,415.99392,-36.67707,-36.569,147.41159,147.41,Snowy Creek above below Granite Flat,,wfs|awral|bjp|jv|hrs|flood|kennard,VIC,415.99392,147.41,-36.569,,406.91754,147.4125,-36.5675,147.41284,-36.67832,625.85822,22.60864,40.30429,585.27838,258.32101,1389.85205,UPPER MURRAY RIVER
401212,251.56149,-36.54745,-36.445,147.88985,147.83,Nariel Creek at Upper Nariel,,awral|hrs|kennard,VIC,251.56149,147.83,-36.445,,243.5203,147.83,-36.4475,147.8911,-36.5487,491.3577,23.07654,44.33616,866.6709,431.78589,1502.55798,UPPER MURRAY RIVER
401216,356.82106,-36.85934,-36.933,147.3953,147.47,Big River at Jokers Creek,,awral|jv|hrs|flood|kennard,VIC,367.6,147.475,-36.9349,Adjusting catchment area and coordinates to match site location,348.1429,147.475,-36.935,147.39665,-36.86068,1512.23901,18.36801,46.69318,1125.41052,521.24652,1968.82202,UPPER MURRAY RIVER
401217,389.78605,-36.68624,-36.756,147.84741,147.71,Gibbo River at Gibbo Park,,wfs|awral|bjp|jv|hrs|flood|kennard,VIC,389.78605,147.71,-36.756,,379.94283,147.7125,-36.755,147.84874,-36.68745,880.49561,25.93938,48.97463,1077.77246,537.91821,1751.17297,UPPER MURRAY RIVER
401220,450.47972,-36.34838,-36.213,147.47599,147.34,TALLANGATTA CREEK R at McCALLUMS,,awral|jv|flood|kennard,VIC,462.3,147.3351,-36.2131,Adjusting catchment area and coordinates to match site location,440.31264,147.335,-36.2125,147.47711,-36.3495,386.8598,29.75249,52.3277,638.56177,210.4774,1097.31104,UPPER MURRAY RIVER
402203,578.627,,-36.596,,147.099,Kiewa River at Mongans Bridge,,flood|kennard,VIC,578.627,147.099,-36.596,,565.19597,147.1,-36.5975,147.19679,-36.77169,754.84338,31.25859,60.12522,821.06561,224.8493,1982.65002,KIEWA RIVER
402204,280.006,-36.35367,-36.30489,146.86069,146.90551,YACKANDANDAH CREEK R at OSBORNES FLAT,,wfs|bjp|jv|hrs|flood|kennard,VIC,280.006,146.90551,-36.30489,,269.82374,146.905,-36.305,146.85585,-36.36842,279.9328,16.06666,30.99126,386.18472,179.4373,788.1684,KIEWA RIVER
402206,128.12976,-36.61113,-36.54,147.0153,147.04,RUNNING CREEK R at RUNNING CREEK,,awral|jv|hrs,VIC,128.12976,147.04,-36.54,,122.2688,147.0425,-36.545,147.01645,-36.61265,279.29309,13.47197,25.06261,459.83313,224.12531,1147.64099,KIEWA RIVER
402213,123.8277,-36.38714,-36.3164,146.89111,146.8938,Kinchington Creek at Osbornes Flat,,awral|hrs|kennard,VIC,123.8277,146.8938,-36.3164,,118.64797,146.895,-36.32,146.89236,-36.38853,366.582,13.97408,23.97942,334.34698,198.78931,788.1684,KIEWA RIVER
403205,493.356,-36.82955,-36.72576,147.03864,146.95307,Ovens River above Bright,,wfs|bjp|flood|kennard,VIC,493.356,146.95307,-36.72576,,481.20111,146.955,-36.7275,147.04342,-36.83593,575.33502,22.91577,46.51072,690.88116,249.3876,1521.93396,OVENS RIVER
403213,230.85565,-36.76696,-36.62,146.27253,146.24,Fifteen Mile Creek above Greta South,,wfs|awral|bjp|jv|hrs|flood|kennard,VIC,230.85565,146.24,-36.62,,222.7934,146.2475,-36.6175,146.27364,-36.76769,168.6162,22.47636,45.58207,350.5701,168.6162,889.10797,OVENS RIVER
403214,138.04949,-36.58033,-36.578,146.89848,146.82,HAPPY VALLEY CREEK R at ROSEWHITE,,awral|jv|hrs|flood,VIC,138.04949,146.82,-36.578,,130.73353,146.8225,-36.5775,146.89976,-36.58158,417.92749,12.32295,24.49549,589.44739,301.72961,1206.83203,OVENS RIVER
403217,180.89208,-36.92245,-36.826,146.5373,146.59,Rose River At  Matong North,,awral|jv|hrs|flood|kennard,VIC,180.89208,146.59,-36.826,,172.63263,146.5875,-36.8225,146.53855,-36.9237,576.23248,18.00555,39.5942,602.03259,339.23459,1173.91394,OVENS RIVER
403222,414.9961,-37.01448,-36.9107,146.75078,146.7012,Buffalo River at Abbeyard,,wfs|awral|bjp|hrs|flood|kennard,VIC,414.9961,146.7012,-36.9107,,406.16642,146.7025,-36.9125,146.75203,-37.01573,632.75061,21.8699,37.41963,689.89404,268.90479,1268.49695,OVENS RIVER
403224,153.82681,-36.63812,-36.513,146.5469,146.45,HURDLE CREEK R at BOBINAWARRAH,,wfs|awral|bjp|jv|flood|kennard,VIC,153.82681,146.45,-36.513,,146.06049,146.45,-36.515,146.54815,-36.63937,157.75259,22.60557,36.03074,245.76935,157.7124,514.474,OVENS RIVER
403226,108.36346,-36.72595,-36.606,146.34111,146.36,BOGGY CREEK R at ANGLESIDE,,wfs|awral|bjp|jv|hrs|flood,VIC,108.36346,146.36,-36.606,,101.89091,146.3625,-36.6075,146.34236,-36.7272,162.94031,16.93697,32.29301,265.25626,162.94031,631.73962,OVENS RIVER
403232,124.051,-36.83501,-36.7515,146.98455,146.9787,Morses Creek at Wandiligong,,awral|hrs|kennard,VIC,124.051,146.9787,-36.7515,,118.51172,146.98,-36.755,146.98579,-36.83679,894.79883,12.07964,21.43994,564,285.97729,1146.65405,OVENS RIVER
403233,456.575,,-36.722,,146.882,Buckland River At Harris Lane,,flood|kennard,VIC,456.575,146.882,-36.722,,445.68448,146.8825,-36.725,146.90456,-36.89306,458.7515,27.04921,55.27637,645.50385,236.61501,1513.41895,OVENS RIVER
405205,105.8273,-37.48613,-37.414,145.57484,145.56,Murrindindi River at Murrindindi above Colwells,,wfs|awral|jv|hrs|kennard,VIC,105.8273,145.56,-37.414,,101.32331,145.565,-37.4125,145.576,-37.48665,493.98071,13.69964,31.72928,552.95599,256.4249,847.45563,GOULBURN RIVER
405209,629.15937,-37.4758,-37.318,145.72286,145.71,Acheron River at Taggerty,,wfs|awral|bjp|jv|hrs|flood|kennard,VIC,629.15937,145.71,-37.318,,621.35286,145.715,-37.3125,145.72408,-37.47668,352.95911,28.22922,55.89933,492.15558,187.54581,1239.95605,GOULBURN RIVER
405212,336.81898,-37.28863,-37.1,145.06467,145.06,SUNDAY CREEK R at TALLAROOK,,awral|jv|flood,VIC,336.81898,145.06,-37.1,,327.38746,145.0575,-37.1,145.06593,-37.29012,163.4469,29.59493,49.40356,284.33133,138.4939,571.71259,GOULBURN RIVER
405214,357.43406,-37.1146,-37.159,146.28953,146.11,Delatite River at Tonga Bridge,,wfs|awral|bjp|jv|flood,VIC,357.43406,146.11,-37.159,,347.96286,146.1125,-37.16,146.29078,-37.11585,340.74319,26.20432,51.80824,686.26849,334.12799,1365.39697,GOULBURN RIVER
405215,362.47029,-37.19705,-37.23,146.40897,146.21,Howqua River at Glen Esk,,wfs|awral|jv|hrs|kennard,VIC,362.47029,146.21,-37.23,,352.05473,146.2125,-37.23,146.41022,-37.1983,380.0798,29.56725,59.97886,884.66364,380.0798,1737.95801,GOULBURN RIVER
405217,360.15474,-37.4528,-37.383,145.42093,145.47,Yea River at Devlins Bridge,,wfs|awral|bjp|jv|hrs|flood|kennard,VIC,360.15474,145.47,-37.383,,353.54425,145.4675,-37.385,145.42212,-37.45415,198.8965,18.4839,38.4436,349.89069,185.33591,803.62402,GOULBURN RIVER
405218,364.2489,-37.30212,-37.2912,146.39375,146.1876,Jamieson River at Gerrang Bridge,,awral|hrs|flood|kennard,VIC,364.2489,146.1876,-37.2912,,352.83612,146.19,-37.2925,146.395,-37.30337,626.02051,32.80669,64.08969,839.25897,315.095,1800.896,GOULBURN RIVER
405219,703.78839,-37.48045,-37.331,146.28536,146.13,Goulburn River at Dohertys ,,wfs|awral|bjp|jv|hrs|flood|kennard,VIC,703.78839,146.13,-37.331,,694.82674,146.13,-37.3325,146.28662,-37.4817,319.87601,40.69902,70.42274,683.1673,272.69971,1570.08203,GOULBURN RIVER
405226,766.46917,-36.80247,-36.62109,145.35942,145.30702,PRANJIP CREEK R at MOORILIM,,wfs|bjp|jv|hrs|flood,VIC,766.46917,145.30702,-36.62109,,736.87827,145.3075,-36.6225,145.36486,-36.80441,111.7536,33.59726,62.55782,146.707,104.7569,560.46283,GOULBURN RIVER
405227,626.68929,-37.50003,-37.367,146.03914,146.06,Big River at Jamieson,,awral|jv|hrs|kennard,VIC,626.68929,146.06,-37.367,,618.49808,146.06,-37.37,146.04039,-37.50128,672.80939,30.58992,61.24451,663.77441,237.1313,1508.90503,GOULBURN RIVER
405228,474.77248,-37.00056,-36.95,145.41597,145.28,Hughes Creek at Tarcombe Roadbe Rd,,wfs|awral|bjp|jv|flood|kennard,VIC,489,145.2816,-36.9524,Adjusting catchment area and coordinates to match site location,466.35775,145.2825,-36.9525,145.41722,-37.00181,159.1546,34.15768,59.22449,335.58069,145.00011,589.84119,GOULBURN RIVER
405229,108.64942,-36.69857,-36.635,144.88172,144.87,WANALTA CREEK R at WANALTA,,awral|jv,VIC,108.64942,144.87,-36.635,,103.3407,144.8725,-36.6375,144.883,-36.70004,100.7303,10.28753,18.22166,114.20713,99.47861,146.43449,GOULBURN RIVER
405230,259.29146,-36.74462,-36.604,144.76438,144.81,CORNELLA CREEK R at COLBINABBIN,,awral|jv,VIC,266.5,144.8075,-36.6076,Adjusting catchment area and coordinates to match site location,250.63611,144.8075,-36.6075,144.76563,-36.74587,101.5969,21.82179,40.54259,169.78929,101.5969,420.57071,GOULBURN RIVER
405231,179.26033,-37.40875,-37.347,145.2529,145.29,KING PARROT CREEK R at FLOWERDALE,,wfs|awral|bjp|jv|flood|kennard,VIC,179.26033,145.29,-37.347,,173.69439,145.2875,-37.3475,145.25408,-37.41011,300.55511,13.88304,22.08263,390.49066,182.8775,729.1153,GOULBURN RIVER
405234,149.57809,-36.84827,-36.888,145.77244,145.68,Seven Creeks at downstream of Polly McQuinns Weir,,wfs|awral|bjp|flood,VIC,149.57809,145.68,-36.888,,142.15881,145.6825,-36.8875,145.77413,-36.84932,327.7536,16.08362,32.38015,472.99786,244.0511,689.79907,GOULBURN RIVER
405237,337.496,,-36.764,,145.586,Seven Creeks At Euroa,,flood|kennard,VIC,337.496,145.586,-36.764,,327.84246,145.5875,-36.7675,145.70367,-36.84756,153.64771,27.77547,58.74451,362.79642,152.6516,702.22668,GOULBURN RIVER
405238,164.80974,-37.16043,-37.121,144.76278,144.86,Mollison Creek at Pyalong,,awral|hrs|flood|kennard,VIC,164.80974,144.86,-37.121,,157.40917,144.8575,-37.1225,144.76363,-37.16186,274.65561,17.37702,33.11817,388.58914,241.4843,621.86987,GOULBURN RIVER
405240,609.20193,-37.17706,-37.061,144.88225,145.06,SUGARLOAF CREEK R at ASH BRIDGE,,wfs|awral|bjp|jv|flood|kennard,VIC,609.20193,145.06,-37.061,,596.00619,145.0575,-37.0625,144.88334,-37.17841,187.4248,38.60428,72.37875,298.9819,154.31371,668.27557,GOULBURN RIVER
405241,127.88961,-37.39044,-37.291,145.87,145.83,Rubicon River @ Rubicon,,awral|jv|flood,VIC,127.88961,145.83,-37.291,,122.9447,145.83,-37.2925,145.87125,-37.39169,492.85699,15.72079,27.15003,555.70367,202.2355,1288.89099,GOULBURN RIVER
405248,286.95994,-36.93458,-36.855,144.83595,144.91,MAJOR CREEK R at GRAYTOWN,,wfs|awral|jv|hrs|flood|kennard,VIC,286.95994,144.91,-36.855,,280.02337,144.9125,-36.8575,144.83723,-36.9358,181.61259,17.31912,30.76114,193.48335,143.2625,299.99429,GOULBURN RIVER
405251,122.55615,-36.91974,-36.969,145.81545,145.79,BRANKEET CREEK R at ANCONA,,awral|jv|hrs|kennard,VIC,122.55615,145.79,-36.969,,116.76797,145.785,-36.9725,145.81677,-36.92083,554.60828,10.45528,21.25748,563.0791,343.57791,822.29633,GOULBURN RIVER
405264,336.00107,-37.55725,-37.52,146.02944,146.08,Goulburn River downstream of Frenchman Creek Junction,,wfs|awral|hrs|kennard,VIC,336.00107,146.08,-37.52,,327.34415,146.0775,-37.5225,146.03059,-37.55856,713.20837,20.00006,36.4515,777.72632,350.02151,1508.90503,GOULBURN RIVER
405274,192.97238,-37.0347,-37.106,145.62694,145.6,HOME CREEK R at YARCK,,wfs|awral|bjp|jv|hrs|flood,VIC,192.97238,145.6,-37.106,,186.88006,145.605,-37.1075,145.62819,-37.03595,299.62079,12.57885,24.46757,381.15567,214.7838,689.56012,GOULBURN RIVER
406213,633.76222,-37.23127,-37.015,144.52406,144.54,Campaspe River at Redesdale,,wfs|awral|bjp|jv|hrs|flood,VIC,633.76222,144.54,-37.015,,621.41166,144.54,-37.0175,144.52531,-37.23252,199.216,39.19985,78.90244,415.5394,174.636,760.97418,CAMPASPE RIVER
406224,244.96631,-36.65079,-36.546,144.69084,144.64,MOUNT PLEASANT CREEK R at RUNNYMEDE,,awral|jv|hrs|flood|kennard,VIC,244.96631,144.64,-36.546,,236.97209,144.6425,-36.5475,144.69209,-36.65204,124.9486,17.86233,37.53469,157.17932,117.5294,255.5731,CAMPASPE RIVER
406226,171.5988,-36.98866,-36.881,144.74122,144.65,MOUNT IDA CREEK R at DERRINAL,,awral|jv|flood,VIC,171.5988,144.65,-36.881,,162.3699,144.6525,-36.8825,144.74247,-36.98991,222.7991,21.6305,44.91146,250.94394,168.5087,435.59311,CAMPASPE RIVER
406235,212.28001,-37.06012,-36.948,144.67705,144.66,Wild Duck Creek at upstream of Heathcote-Mia Mia,,wfs|awral|bjp|jv|flood|kennard,VIC,212.28001,144.66,-36.948,,205.16468,144.6625,-36.9475,144.6783,-37.06137,236.9249,20.38884,42.27666,270.85461,189.4848,456.2608,CAMPASPE RIVER
407221,168.28,,-37.206,,144.099,Jim Crow Creek at Yandoit,,flood|kennard,VIC,168.28,144.099,-37.206,,161.63969,144.1,-37.2075,144.1289,-37.32792,251.7581,18.04324,34.13396,367.46774,218.0545,648.91541,LODDON RIVER
407230,155.53028,-37.27017,-37.164,144.01044,143.96,JOYCES CREEK R at STRATHLEA,,wfs|awral|jv|hrs|flood|kennard,VIC,155.53028,143.96,-37.164,,147.50004,143.96,-37.1675,144.01213,-37.27231,248.3922,18.04366,37.37197,296.43921,204.2067,519.87842,LODDON RIVER
408202,82.64851,-37.2489,-37.182,143.39672,143.41,Avoca River at Amphitheatre,,wfs|awral|hrs|flood|kennard|selected,VIC,82.64851,143.41,-37.182,,78.65932,143.4075,-37.1825,143.39796,-37.2502,270.89319,10.4147,18.52736,347.19882,248.92281,652.97858,AVOCA RIVER
410024,990.0328,-35.4006,-35.1672,148.68256,148.6855,Goodradigbee River at Wee Jasper (Kashmir) ,,wfs|awral|bjp|jv|kennard|selected,NSW,990.0328,148.6855,-35.1672,,965.60691,148.69,-35.1675,148.68381,-35.40185,560.71332,41.26818,83.42246,905.4928,349.3349,1855.30005,MURRUMBIDGEE RIVER
410038,390.88571,-35.14253,-35.0192,148.43844,148.2457,ADJUNGBILLY CREEK R at DARBALARA,,wfs|awral|bjp|jv|kennard,NSW,390.88571,148.2457,-35.0192,,376.25305,148.2475,-35.0175,148.43966,-35.14376,368.53241,38.30678,64.22449,600.96332,225.44971,912.66772,MURRUMBIDGEE RIVER
410057,667.97425,-35.42206,-35.3306,148.48215,148.3472,Goobarragandra River at Lacmalac ,,wfs|awral|bjp|jv|hrs|kennard,NSW,667.97425,148.3472,-35.3306,,650.79503,148.35,-35.33,148.48341,-35.42332,567.32642,30.46307,54.22449,842.87958,299.56561,1449.55896,MURRUMBIDGEE RIVER
410061,147.77195,-35.43877,-35.3338,148.09832,148.0673,ADELONG CREEK R at BATLOW ROAD,,wfs|awral|bjp|jv|hrs|kennard,NSW,147.77195,148.0673,-35.3338,,138.62255,148.07,-35.3325,148.09996,-35.44124,290.75409,17.3782,31.91174,466.2717,253.5128,869.54822,MURRUMBIDGEE RIVER
410088,432.05789,-35.54365,-35.42,148.69799,148.73,Goodradigbee River at Brindabella,,wfs|awral|kennard,NSW,432.05789,148.73,-35.42,,418.89655,148.7325,-35.4225,148.69924,-35.5449,904.49622,23.26876,46.02257,1073.29541,494.4993,1855.30005,MURRUMBIDGEE RIVER
410514,112.469,,-35.983,,148.757,Goorudee Rivulet at Bolaro,,kennard,NSW,112.469,148.757,-35.983,,106.0938,148.755,-35.9825,148.70719,-35.93569,1325.55896,12.34647,19.84067,1362.05872,1136.44702,1708.28406,MURRUMBIDGEE RIVER
410711,388.2,,-35.59544,,149.046,Gudgenby River at Naas,,selected,ACT|NSW,388.2,149.046,-35.59544,,364.09833,149.055,-35.6025,148.96273,-35.67339,633.48682,24.3132,40.95517,1061.37415,605.73138,1607.49304,MURRUMBIDGEE RIVER
410713,224.36534,-35.47325,-35.3843,148.95288,148.9656,Paddy's River at Riverlea,,wfs|awral|bjp|jv|kennard,ACT|NSW,224.36534,148.9656,-35.3843,,215.96636,148.9675,-35.3875,148.95413,-35.4745,547.3125,17.57164,40.67739,687.38635,453.67929,1361.24597,MURRUMBIDGEE RIVER
410730,129.9707,-35.66503,-35.5917,148.83531,148.8212,Cotter River at Gingera,,wfs|awral|bjp|hrs|selected,ACT,132.4,148.8226,-35.5929,Adjusting catchment area and coordinates to match site location,123.33588,148.8225,-35.5925,148.83656,-35.66628,961.151,11.77903,21.83277,1219.87061,840.27039,1679.40796,MURRUMBIDGEE RIVER
410731,671.6351,-35.71877,-35.5747,148.99067,149.0683,Gudgenby River at Tennent,,wfs|awral|bjp|jv|hrs|kennard,ACT|NSW,671.6351,149.0683,-35.5747,,654.82103,149.0675,-35.5775,148.99175,-35.72038,583.02307,30.10667,60.93881,1035.69983,564.10419,1718.14905,MURRUMBIDGEE RIVER
410733,70,,-35.33017,,148.88836,Condor at Threeways,,selected,ACT,70,148.88836,-35.33017,,63.53895,148.8925,-35.3375,148.83954,-35.32925,651.67072,9.45713,16.16216,918.31677,651.67072,1297.23096,MURRUMBIDGEE RIVER
410734,516.0487,-35.76425,-35.6138,149.41714,149.3498,Queanbeyan River at Tinderry ,,wfs|awral|bjp|hrs|selected,ACT|NSW,516.0487,149.3498,-35.6138,,502.37235,149.3525,-35.615,149.41839,-35.7655,824.27283,30.00994,58.32375,1004.85901,716.80737,1473.67603,MURRUMBIDGEE RIVER
410736,89.6,,-35.66506,,148.98936,Orroral River at Xing,,selected,ACT|NSW,89.6,148.98936,-35.66506,,82.82458,148.99,-35.6675,148.9247,-35.60192,1223.51404,13.38677,22.16977,1101.01562,677.80121,1500.33899,MURRUMBIDGEE RIVER
412065,2240.5,-34.68105,-34.39722,149.24597,149.09127,Lachlan river at narrawa,,wfs|bjp|kennard|selected,NSW,2240.5,149.09127,-34.39722,,2190.22787,149.09,-34.4,149.2226,-34.66963,424.4902,66.0448,140.57926,661.28101,417.3439,1039.97705,LACHLAN RIVER
412066,1630.1786,-34.21017,-34.12,149.71509,149.6,Abercrombie River above Hadley No.2,,wfs|awral|bjp|hrs|kennard,NSW,1630.1786,149.6,-34.12,,1590.52174,149.6025,-34.1175,149.7164,-34.21147,844.99573,45.44437,80.72365,927.90839,519.72083,1335.97302,LACHLAN RIVER
415201,1976.08433,-37.07256,-36.909,143.03584,142.64,Wimmera River at Glenorchy Weir Tail Gauge,,wfs|awral|bjp|jv|flood,VIC,1976.08433,142.64,-36.909,,1958.60466,142.6425,-36.9075,143.03709,-37.07381,157.23981,65.75484,117.64356,271.20859,157.0304,796.17133,WIMMERA-AVON RIVERS
415207,302.79102,-37.16738,-37.185,143.26468,143.19,Wimmera River at Eversley,,wfs|awral|bjp|hrs|flood|kennard,VIC,302.79102,143.19,-37.185,,294.48627,143.1925,-37.1825,143.26622,-37.16851,412.05099,17.45833,30.40779,408.03247,254.86391,757.31458,WIMMERA-AVON RIVERS
415226,124.26164,-36.8193,-36.742,142.8925,142.79,Richardson River at Carrs Plains,,awral|jv|hrs|flood,VIC,124.26164,142.79,-36.742,,118.05782,142.7925,-36.745,142.89375,-36.82055,138.144,17.86489,33.18557,168.80693,136.0255,221.8445,WIMMERA-AVON RIVERS
415237,244.18377,-37.13498,-37.026,142.87122,142.82,Concongella Creek at Stawell,,wfs|awral|bjp|hrs|flood,VIC,244.18377,142.82,-37.026,,237.70496,142.8225,-37.0275,142.87247,-37.13623,202.7074,18.67421,35.27299,235.52237,184.77229,415.18161,WIMMERA-AVON RIVERS
416003,559.30472,-29.00996,-29.0328,151.93378,151.7235,TENTERFIELD CREEK R at CLIFTON,,wfs|awral|bjp|jv|hrs|kennard,NSW,559.30472,151.7235,-29.0328,,525.86449,151.725,-29.0225,151.93711,-29.01121,896.14948,43.58756,74.48591,948.40192,696.71448,1275.33203,BORDER RIVERS
416008,907.96974,-29.35169,-29.2195,151.57129,151.3827,Beardy Creek at Haystack,,wfs|awral|bjp|jv|hrs,NSW,907.96974,151.3827,-29.2195,,872.49717,151.38,-29.21,151.57171,-29.35237,415.58499,43.29353,90.42613,776.25092,327.50049,1238.72095,BORDER RIVERS
416010,2134.35903,-29.68173,-29.2642,151.1857,150.8984,Macintyre River at Wallangra,,wfs|awral|bjp|kennard|selected,NSW,2134.35903,150.8984,-29.2642,,2053.98035,150.9025,-29.2575,151.18677,-29.6827,449.1727,106.73663,199.53415,660.19843,320.82791,1327.41296,BORDER RIVERS
416016,751.20951,-29.86874,-29.7936,151.35813,151.1263,Macintyre River at Inverell (Middle Creek),,wfs|awral|jv|selected,NSW,751.20951,151.1263,-29.7936,,720.7169,151.125,-29.7825,151.35867,-29.86973,592.75342,41.74996,80.15653,785.60205,559.8443,1327.41296,BORDER RIVERS
416022,1100,-29.67442,-29.5128,151.77093,151.7038,Severn River at Fladbury,,wfs|bjp,NSW,1100,151.7038,-29.5128,,1070.24846,151.6975,-29.51,151.77294,-29.67819,843.4953,45.99784,92.0567,1026.57886,830.04077,1405.38403,BORDER RIVERS
416023,538.53119,-29.39992,-29.2929,151.92218,151.9234,Deepwater River at Bolivia,,wfs|awral|bjp|jv|kennard,NSW,538.53119,151.9234,-29.2929,,514.87344,151.92,-29.285,151.92344,-29.40077,837.61609,39.46535,82.05331,902.45306,473.68051,1508.19299,BORDER RIVERS
416032,1592.51897,-29.25528,-29.017,151.88701,151.5986,Mole River at Donaldson,,awral|kennard,NSW,1592.51897,151.5986,-29.017,,1536.21288,151.5875,-29.015,151.88684,-29.25543,388.67249,82.94352,164.66218,838.91418,383.4859,1508.19299,BORDER RIVERS
416039,1742.776,-29.61492,-29.4562,151.57992,151.4646,SEVERN R at STRATHBOGIE,,jv,NSW,1742.776,151.4646,-29.4562,,1687.06622,151.455,-29.46,151.70317,-29.65465,646.09473,70.59085,134.95631,973.39862,489.80151,1405.38403,BORDER RIVERS
418005,249.31084,-29.9592,-29.9179,151.25333,151.1137,COPES CREEK R at KIMBERLEY,,awral|jv|hrs|kennard,NSW,249.31084,151.1137,-29.9179,,234.64443,151.11,-29.925,151.25398,-29.96029,675.42792,24.22384,47.66949,754.48083,596.258,999.47021,GWYDIR RIVER
418027,204.94867,-30.29914,-30.2081,150.32444,150.4281,HORTON R at HORTON DAM SITE,,awral|jv,NSW,204.94867,150.4281,-30.2081,,191.60333,150.4325,-30.205,150.32606,-30.30005,396.63721,26.45497,50.43909,566.78955,359.62851,991.54822,GWYDIR RIVER
419005,2532.404,-30.86269,-30.68,151.22391,150.78,Namoi River at North Cuerindi,,wfs|awral|bjp|hrs|selected,NSW,2532.404,150.78,-30.68,,2436.81013,150.78,-30.69,151.22464,-30.86373,502.1593,123.68989,237.13624,928.01215,417.36249,1318.41699,NAMOI RIVER
419010,840.76622,-31.17825,-30.9669,151.49833,151.3448,Macdonald River at Woolbrook,,wfs|awral|bjp|kennard,NSW,840.76622,151.3448,-30.9669,,806.51778,151.35,-30.9625,151.49943,-31.17928,995.70129,50.18241,83.31896,1106.31677,920.22272,1318.41699,NAMOI RIVER
419016,896.55515,-31.13154,-31.0614,151.28086,151.1254,Cockburn River at Mulla Crossing,,wfs|awral|jv|kennard,NSW,896.55515,151.1254,-31.0614,,864.19667,151.115,-31.06,151.28154,-31.13254,834.27222,35.46678,78.80712,864.97339,457.89911,1320.30603,NAMOI RIVER
419027,3630,,-31.2734,,150.4614,Mooki River at Breeza,,selected,NSW,3630,150.4614,-31.2734,,3536.40783,150.46,-31.275,150.52015,-31.59102,279.59329,64.87081,111.82997,419.16037,270.078,1119.96497,NAMOI RIVER
419029,362.78458,-30.78696,-30.7054,150.97582,150.8259,HALLS CREEK R at UKOLAN,,awral|jv,NSW,356.7,150.8289,-30.7048,Adjusting catchment area and coordinates to match site location,343.70828,150.83,-30.705,150.97707,-30.78821,565.70612,26.9972,54.48252,741.7359,401.29031,1145.84399,NAMOI RIVER
419032,3786.14679,-31.20974,-30.78,149.83377,149.99,Boggabri,,wfs|awral,NSW,3786.14679,149.99,-30.78,,3669.48575,149.9875,-30.77,149.83501,-31.21104,299.98819,80.84567,153.44418,382.54294,240.3746,946.6651,NAMOI RIVER
419034,2180.527,,-31.409,,150.429,Mooki River at Caroona,,kennard,NSW,2180.527,150.429,-31.409,,2117.34274,150.4325,-31.4,150.49656,-31.66856,288.1633,50.22009,91.43374,391.62927,287.62839,840.15192,NAMOI RIVER
419049,2440,,-29.9221,,148.3873,Pian Creek at Waminda,,selected,NSW,2440,148.3873,-29.9221,,2424.07376,148.39,-29.9225,148.89971,-29.98604,132.1886,74.18034,171.34041,155.84634,122.9542,189.06731,NAMOI RIVER
419053,766.3516,-30.40492,-30.4222,150.50992,150.6511,MANILLA R at BLACK SPRINGS,,jv,NSW,766.3516,150.6511,-30.4222,,743.55214,150.6575,-30.4225,150.51401,-30.40428,597.54077,36.13757,78.65258,631.84631,399.40259,933.39941,NAMOI RIVER
419054,399.88186,-31.13622,-31.0396,151.32662,151.1694,Limbri,,wfs|awral,NSW,393.7,151.1724,-31.0374,Adjusting catchment area and coordinates to match site location,379.69481,151.1725,-31.0375,151.32787,-31.13747,1107.50305,30.84791,56.51411,911.22986,565.70172,1245.82397,NAMOI RIVER
420003,130.21383,-31.36127,-31.3861,149.121,149.2011,Warkton (Blackburns),,awral,NSW,130.21383,149.2011,-31.3861,,123.70028,149.205,-31.385,149.12355,-31.36304,554.71838,12.55434,26.52708,683.51086,422.74811,1153.59802,CASTLEREAGH RIVER
420017,1153.68939,-31.33697,-31.4197,149.34851,149.3103,Castlereagh River at Hidden Valley,,wfs|awral|bjp|jv|selected,NSW,1153.68939,149.3103,-31.4197,,1112.4851,149.3125,-31.43,149.34972,-31.33832,520.45612,37.57382,76.3153,552.48944,387.1778,1153.59802,CASTLEREAGH RIVER
421018,1628.10721,-32.99289,-32.6808,148.97688,148.9478,Bell River at Newrea,,awral|jv|selected,NSW,1628.10721,148.9478,-32.6808,,1585.53412,148.95,-32.68,148.97796,-32.99293,305.1622,73.05356,137.20645,544.9494,287.5495,989.65448,MACQUARIE-BOGAN RIVERS
421023,27970,,-30.3472,,146.8978,Bogan River at Gongolgon,,selected,NSW,27970,146.8978,-30.3472,,27714.57379,146.8875,-30.3375,147.28047,-31.90999,125.0112,288.45177,489.33848,215.71964,117.5215,775.38422,MACQUARIE-BOGAN RIVERS
421039,14760,,-31.7749,,147.1235,Bogan River at Neurie Plains,,selected,NSW,14760,147.1235,-31.7749,,11120.18618,147.1275,-31.7675,147.54849,-32.4303,177.2681,131.5273,254.92559,238.31711,171.9279,775.38422,MACQUARIE-BOGAN RIVERS
421042,3187.38515,-32.00077,-32.0939,149.54255,149.0598,Talbragar River at Elong Elong,,wfs|awral|selected,NSW,3187.38515,149.0598,-32.0939,,3098.85792,149.0525,-32.1025,149.54318,-32.00215,442.01199,100.98473,199.78401,532.21466,338.1171,1130.86096,MACQUARIE-BOGAN RIVERS
421050,371.08288,-33.13154,-33.03,149.05174,148.95,Molong,,awral,NSW,371.08288,148.95,-33.03,,355.51216,148.9525,-33.0325,149.05301,-33.1328,546.23053,25.38839,47.75663,690.90192,490.03201,989.65448,MACQUARIE-BOGAN RIVERS
421055,673.95976,-32.01465,-32.1442,148.637,148.4549,COOLBAGGIE CREEK R at RAWSONVILLE,,awral|jv|kennard,NSW,673.95976,148.4549,-32.1442,,648.23848,148.45,-32.15,148.63766,-32.01628,266.01169,39.81373,75.4704,319.42389,260.8829,389.99371,MACQUARIE-BOGAN RIVERS
424002,34179.175,-27.82773,-29.23998,144.88163,144.45643,Paroo River at Willarra Crossing,,wfs|bjp|hrs|kennard|selected,NSW,22146.3,144.4562,-29.2399,Adjusting catchment area and coordinates to match site location + Disconnected areas by Geofabric 9sec D8,22583.12611,144.455,-29.24,145.06278,-27.58624,122.2634,279.03739,483.25669,224.46861,115.4931,409.93301,PAROO RIVER
203030,392.21166,-29.09601,-29.1116,152.82837,152.9984,Myrtle Creek at Rappville,,wfs|awral|bjp|jv|kennard,NSW,392.21166,152.9984,-29.1116,,372.04074,153.0075,-29.1125,152.83036,-29.09732,32.86601,27.91585,49.81614,166.79459,29.57478,644.53473,RICHMOND RIVER
204007,16952.8746,-29.45928,-29.51,152.34539,152.68,Lilydale (Newbold Crossing,,wfs|awral,NSW,16952.8746,152.68,-29.51,,16478.34064,152.6875,-29.5125,152.34686,-29.46055,98.62707,195.94119,353.71635,626.02661,12.23682,1482.57898,CLARENCE RIVER
204014,888.63143,-29.82965,-29.6947,151.87757,152.1049,Mann River at Mitchell,,wfs|awral|kennard,NSW,867.7,152.1054,-29.6949,Adjusting catchment area and coordinates to match site location,848.52631,152.1075,-29.695,151.87884,-29.83089,890.77502,49.03542,107.92951,1097.78296,752.0484,1406.40601,CLARENCE RIVER
204015,2639.6554,-30.13212,-29.8409,152.1188,152.316,Broadmeadows,,wfs|awral,NSW,2639.6554,152.316,-29.8409,,2550.70852,152.325,-29.8475,152.12017,-30.13319,672.19897,91.3081,175.14554,918.99402,225.08389,1475.75,CLARENCE RIVER
204025,135.84622,-30.28911,-30.2544,152.96949,153.0323,Orara at Karangi,,wfs|awral|jv,NSW,135.84622,153.0323,-30.2544,,127.75686,153.04,-30.25,152.97132,-30.29006,171.539,14.72088,23.8167,277.08569,70.52795,711.33942,CLARENCE RIVER
204030,208.64185,-30.18982,-30.2603,151.8259,152.0083,Aberfoyle River at Aberfoyle,,wfs|awral|jv|kennard,NSW,208.64185,152.0083,-30.2603,,194.02433,152.0175,-30.2575,151.8284,-30.19155,1107.328,34.28341,60.79584,1298.61243,1070.08301,1475.75,CLARENCE RIVER
204033,986.63526,-29.43389,-29.195,152.15842,152.2506,Timbarra River at Billyrimba,,wfs|awral|jv|kennard,NSW,986.63526,152.2506,-29.195,,946.10411,152.2525,-29.1925,152.15987,-29.43455,796.53833,50.39441,94.69968,862.66125,289.3075,1482.57898,CLARENCE RIVER
204034,398.85364,-29.8715,-29.7639,152.04934,152.2118,Henry River at Newton Boyd,,wfs|awral|bjp|jv|hrs|kennard,NSW,398.85364,152.2118,-29.7639,,378.54688,152.2225,-29.7625,152.05112,-29.8724,888.05481,37.92506,74.23605,865.19641,296.13419,1245.56702,CLARENCE RIVER
204037,63.30297,-30.11058,-30.0938,152.57083,152.6282,Clouds Creek at Clouds Creek,,wfs|awral|jv|kennard,NSW,63.30297,152.6282,-30.0938,,58.20537,152.6325,-30.0925,152.57245,-30.11171,392.71329,10.12072,19.17005,490.25717,266.97379,813.59662,CLARENCE RIVER
204041,1807.33334,-29.99846,-29.7242,152.92246,152.8092,Orara River at Bawden Bridge,,wfs|awral|jv|kennard,NSW,1807.33334,152.8092,-29.7242,,1745.57745,152.805,-29.715,152.92338,-29.99889,33.02369,71.85462,142.53527,114.75019,12,711.33942,CLARENCE RIVER
204046,1722.91025,-29.30196,-29.0573,152.20899,152.3849,Timbarra River at Drake,,wfs|awral|bjp|kennard,NSW,1722.91025,152.3849,-29.0573,,1661.78789,152.395,-29.065,152.21118,-29.30205,538.44513,65.82098,132.9329,780.33234,194.3251,1482.57898,CLARENCE RIVER
204906,430.5905,-30.21416,-30.07,153.01537,152.98,Glenreagh,,awral,NSW,420.3,152.9876,-30.07,Adjusting catchment area and coordinates to match site location,409.349,152.9875,-30.07,153.01662,-30.21541,55.62644,30.43467,55.63312,190.62459,19.5507,711.33942,CLARENCE RIVER
206009,265.19106,-31.25974,-31.1878,151.7566,151.8291,Macleay at Tia (Tia River),,wfs|awral|bjp|jv|kennard,NSW,265.19106,151.8291,-31.1878,,256.07995,151.8325,-31.1825,151.75927,-31.25992,973.70288,19.21363,35.47519,1137.16357,628.55658,1329.93994,MACLEAY RIVER
206011,10148.08,,-31.009,,152.714,Macleay River at Turners,,kennard,NSW,10148.08,152.714,-31.009,,9865.57435,152.7175,-31.02,152.00365,-30.7843,198.75819,211.59478,336.8754,865.28461,25.78242,1582.03601,MACLEAY RIVER
206014,377.44631,-30.35009,-30.4776,151.93473,152.0262,Wollomombi River at Coninside,,wfs|awral|bjp|jv|hrs|kennard,NSW,377.44631,152.0262,-30.4776,,357.09916,152.035,-30.48,151.93613,-30.35154,1107.43103,31.07683,62.37536,1238.83679,1048.24402,1474.06006,MACLEAY RIVER
206018,851.91412,-30.99959,-31.052,151.63342,151.768,Apsley River at Apsley Falls,,wfs|awral|jv|hrs,NSW,851.91412,151.768,-31.052,,822.34592,151.7725,-31.0625,151.63549,-31.00123,1098.44299,39.78308,77.00565,1100.73059,799.64752,1315.66699,MACLEAY RIVER
206025,647.6136,-30.68,-30.681,151.55926,151.7133,Salisbury Waters at near Dangar Falls,,awral|jv,NSW,647.6136,151.7133,-30.681,,615.45772,151.7225,-30.675,151.56078,-30.68125,1020.021,34.09428,57.28004,1056.74902,921.6366,1349.60706,MACLEAY RIVER
207004,1583.17481,-31.39062,-31.4241,152.27075,152.4697,Hastings River at Ellenborough (Kindee Bridge),,wfs|awral|bjp|kennard,NSW,1583.17481,152.4697,-31.4241,,1529.14326,152.4725,-31.415,152.27233,-31.39192,333.98239,53.82199,95.50509,572.21637,46.67632,1243.78894,HASTINGS RIVER
207013,497.79497,-31.54788,-31.481,152.31071,152.4478,Ellenborough at D/S Bunnoo R Junction,,awral|jv,NSW,497.79497,152.4478,-31.481,,476.77697,152.4575,-31.475,152.3125,-31.54886,311.41849,35.58026,66.20841,322.92743,46.67632,970.10962,HASTINGS RIVER
208003,1631.44619,-31.99906,-31.8981,151.7903,152.0956,Doon Ayre,,wfs|awral,NSW,1631.44619,152.0956,-31.8981,,1577.77056,152.105,-31.8925,151.79179,-32.00023,473.16809,69.77059,130.47238,484.10004,33.75517,1519.97998,MANNING RIVER
208004,6642.18471,-31.72705,-31.92,151.77931,152.31,Killawarra,,wfs|awral|bjp,NSW,6642.18471,152.31,-31.92,,6479.67092,152.32,-31.92,151.78149,-31.72862,189.4841,114.50281,214.83506,668.32843,9.7817,1519.97998,MANNING RIVER
208005,1893.72518,-31.51138,-31.779,151.91021,152.0746,Manning at Rocks Crossing (Nowendoc River),,wfs|awral|bjp|jv,NSW,1893.72518,152.0746,-31.779,WFS grid cells does not count for a large part of the catchment,1839.47737,152.075,-31.79,151.91201,-31.51348,226.5137,65.42286,112.45292,804.83093,110.3675,1461.41504,MANNING RIVER
208011,1820.93987,-31.60665,-31.77,151.51843,151.9,Barnard River at Mackay,,wfs|awral|bjp,NSW,1820.93987,151.9,-31.77,,1763.30534,151.9075,-31.7775,151.52015,-31.60811,325.98029,80.91109,143.78936,910.45282,188.1787,1400.15405,MANNING RIVER
209003,974.27888,-32.27287,-32.48,151.91954,151.96,Karuah River at Booral,,wfs|awral|bjp|kennard,NSW,962.8,151.9598,-32.4825,Adjusting catchment area and coordinates to match site location,936.7901,151.96,-32.4825,151.92079,-32.27412,86.81341,43.44317,84.17204,262.38303,25.00006,1003.16901,KARUAH RIVER
210011,196.1705,-32.23333,-32.31921,151.59167,151.68716,William River above Tillegra,,wfs|bjp|hrs|kennard,NSW,196.1705,151.68716,-32.31921,,184.42933,151.6975,-32.32,151.58494,-32.22729,497.75159,23.20837,50.11366,678.12134,148.0049,1529.40198,HUNTER RIVER
210018,739.1,-31.82903,-31.9157,151.31613,151.2153,Hunter River at Moonam Dam Site,,wfs|bjp,NSW,739.1,151.2153,-31.9157,,711.84677,151.2175,-31.925,151.32048,-31.83455,759.18927,35.61205,64.52201,867.8335,444.8031,1440.08301,HUNTER RIVER
210022,188.47719,-32.19228,-32.3078,151.47598,151.5117,Allyn River at Halton,,wfs|awral|bjp|jv|kennard,NSW,188.47719,151.5117,-32.3078,,178.21091,151.5125,-32.3175,151.47743,-32.19432,247.60719,22.85398,42.98675,900.81702,220.1859,1585.40002,HUNTER RIVER
210052,1068.97434,-31.79104,-32.0119,151.00036,150.9965,Pages River at Gundy Recorder,,wfs|awral|kennard,NSW,1068.97434,150.9965,-32.0119,,1033.36976,150.9975,-32.0225,151.0016,-31.79286,727.73907,49.27417,79.59279,687.35718,276.80551,1438.80505,HUNTER RIVER
211009,237.61561,-33.16623,-33.2724,151.28315,151.3593,Gracemere,,wfs|awral,NSW,237.61561,151.3593,-33.2724,,225.55862,151.3625,-33.27,151.28444,-33.16753,32.55386,25.42476,41.30034,271.32153,32.55386,633.92462,MACQUARIE-TUGGERAH LAKES
211010,93.35082,-33.17997,-33.25,151.36074,151.39,Jilliby Creek at U/S Wyong River,,wfs|awral|kennard,NSW,93.35082,151.39,-33.25,,87.26682,151.39,-33.2525,151.36213,-33.18156,130.21021,11.41453,21.96757,265.54059,19.50619,451.5484,MACQUARIE-TUGGERAH LAKES
216004,95.71615,-34.99073,-34.97,150.53457,150.5989,Currambene Creek at Falls Creek,,wfs|awral|bjp|jv|hrs,NSW,95.71615,150.5989,-34.97,,89.56713,150.5975,-34.97,150.53565,-34.99204,3.49722,10.54887,22.45573,56.60659,0,209.8156,CLYDE RIVER-JERVIS BAY
218007,120.18297,-36.28744,-36.2586,149.62532,149.6914,Wadbilliga River at Wadbilliga,,wfs|awral|jv|kennard,NSW,120.18297,149.6914,-36.2586,,118.94699,149.69,-36.2575,149.62831,-36.28749,352.76089,12.74,25.92386,449.76129,104.3644,1073.74402,TUROSS RIVER
218008,1606.75654,-36.2124,-36.13,149.71034,150,Tuross River at Eurobodalla,,wfs|awral|bjp|kennard,NSW,1606.75654,150,-36.13,,1580.88906,149.9975,-36.1325,149.71137,-36.2137,42.57424,69.09487,130.01215,531.64056,7.52262,1360.25903,TUROSS RIVER
219017,151.86568,-36.59382,-36.6,149.70873,149.8094,Double Creek at Near Brogo,,wfs|awral|bjp|jv|kennard,NSW,151.86568,149.8094,-36.6,,146.01116,149.81,-36.6025,149.70998,-36.59507,111.0612,16.75777,28.41568,300.05975,39.33195,756.66443,BEGA RIVER
219022,200.1455,-36.76528,-36.7319,149.54202,149.6842,Tantawangalo Creek at Candelo Damsite,,wfs|awral|kennard,NSW,200.1455,149.6842,-36.7319,,191.44203,149.6825,-36.7325,149.54279,-36.76663,192.2476,24.48135,46.53046,422.16312,92.63904,1081.32202,BEGA RIVER
220004,766.29046,-36.98314,-37.0731,149.53641,149.6581,Towamba River at Towamba,,wfs|awral|bjp|jv,NSW,766.29046,149.6581,-37.0731,,754.42155,149.655,-37.075,149.53757,-36.98433,192.5742,30.51521,52.24056,525.27338,90.51398,1098.02502,TOWAMBA RIVER
221002,477.22499,-37.24203,-37.3719,149.61156,149.7125,Wallagaraugh River at Princes Highway,,wfs|awral|bjp|jv|kennard,NSW,477.22499,149.7125,-37.3719,,468.5672,149.7125,-37.37,149.61265,-37.24309,368.94321,31.41616,57.34744,333.04419,23.08718,920.22247,EAST GIPPSLAND
221201,323.18025,-37.29939,-37.373,149.11124,149.2,Cann River (West Branch) At Weeragua,,awral|jv|flood|kennard,VIC,323.18025,149.2,-37.373,,313.0151,149.1975,-37.375,149.11241,-37.30056,431.67819,25.60529,43.65737,725.83392,292.12311,1055.04102,EAST GIPPSLAND
221207,159.22597,-37.35674,-37.447,148.88923,148.91,Errinundra River at Errinundra,,wfs|awral|hrs|kennard,VIC,159.22597,148.91,-37.447,,156.15345,148.915,-37.45,148.89058,-37.35916,394.11401,16.83179,29.50705,953.11755,260.66422,1219.96399,EAST GIPPSLAND
221208,423.22975,-37.57731,-37.689,149.44667,149.49,Wingan River at Wingan Inlet National Park,,awral|kennard,VIC,423.22975,149.49,-37.689,,414.82807,149.4925,-37.69,149.44792,-37.57856,128.0993,27.10685,51.29217,204.43456,21.40987,599.84991,EAST GIPPSLAND
221209,147.02086,-37.28025,-37.356,149.22669,149.21,Cann River (East Branch) At Chandlers Ck,,awral|flood|kennard,VIC,147.02086,149.21,-37.356,,140.17596,149.2075,-37.3525,149.22811,-37.28074,566.03162,12.56703,23.12634,748.64703,313.23819,1019.87097,EAST GIPPSLAND
221210,844.12542,-37.23952,-37.416,149.37961,149.52,Genoa River at The George,,wfs|awral|bjp|jv|hrs|flood|kennard,VIC,844.12542,149.52,-37.416,,829.12205,149.52,-37.4125,149.38059,-37.24039,286.78781,46.20634,87.39031,589.16168,142.274,1115.60596,EAST GIPPSLAND
221211,181.803,-37.37262,-37.44,149.00765,148.98,Combienbar River at Combienbar,,awral|kennard,VIC,181.803,148.98,-37.44,,176.58522,148.9825,-37.4425,149.0089,-37.37387,584.52478,14.99825,25.97152,844.45654,254.72639,1199.61597,EAST GIPPSLAND
221212,731.21134,-37.44236,-37.606,148.90859,148.9,Bemm River At Princes Highway,,awral|flood|kennard,VIC,731.21134,148.9,-37.606,,720.02071,148.9025,-37.6025,148.90984,-37.44349,347.97961,32.69262,57.28004,712.95721,97.63981,1286.87,EAST GIPPSLAND
222004,610.48087,-37.14008,-36.9969,149.03211,149.0925,Little Plains River at Wellesley (Rowes),,wfs|awral|bjp|jv|kennard,NSW,610.48087,149.0925,-36.9969,,599.22296,149.095,-36.9975,149.03336,-37.14133,725.33759,29.05092,57.35562,797.43768,637.45587,1303.16394,SNOWY RIVER
222016,156.35136,-36.70953,-36.7936,148.32096,148.4033,Pinch at The Barry Way,,wfs|awral|jv,NSW,156.35136,148.4033,-36.7936,,149.72601,148.4,-36.79,148.32192,-36.71049,676.67047,16.33675,34.89171,1361.07996,547.39221,1860.32703,SNOWY RIVER
222017,325.66905,-36.58665,-36.655,149.21831,149.11,Mclaughlin River At The Hut,,wfs|awral|bjp|flood,NSW,317.5,149.1101,-36.6542,Adjusting catchment area and coordinates to match site location,300.26646,149.11,-36.6525,149.2236,-36.58326,951.77582,25.21365,50.62155,1012.24353,804.7254,1231.38403,SNOWY RIVER
222202,648.10921,-37.40483,-37.512,148.65686,148.55,Brodribb River At Sardine Creek,,awral|jv|flood|kennard,VIC,648.10921,148.55,-37.512,,634.36839,148.5475,-37.51,148.65816,-37.40603,419.96921,33.63245,60.72844,584.77856,177.3743,1029.96899,SNOWY RIVER
222206,849.54348,-37.14453,-37.496,148.11096,148.17,Buchan River at Buchan,,wfs|awral|bjp|hrs|flood|kennard,VIC,849.54348,148.17,-37.496,,810.79719,148.17,-37.4925,148.11143,-37.13613,341.43381,67.42944,115.69911,1025.48608,198.80969,1828.11694,SNOWY RIVER
222210,847.285,,-37.086,,148.426,Deddick River at Deddick (Caseys),,kennard,VIC,847.285,148.426,-37.086,,833.36378,148.4275,-37.0875,148.62067,-37.07156,225.618,37.66169,72.39849,808.42706,190.7287,1445.82202,SNOWY RIVER
222217,429.13592,-37.34467,-37.41,148.50171,148.36,Rodger River at Jacksons Crossing,,awral|kennard,VIC,429.13592,148.36,-37.41,,421.46495,148.3625,-37.4075,148.50305,-37.34588,405.91711,26.84592,57.62522,693.64185,81.98716,1288.58398,SNOWY RIVER
223202,899.30428,-37.13683,-37.268,147.77875,147.73,Tambo River above Swifts Creek,,wfs|awral|bjp|jv|hrs|flood,VIC,899.30428,147.73,-37.268,,884.10097,147.73,-37.265,147.78003,-37.13798,599.38531,34.46669,68.47012,882.23016,340.3479,1631.20996,TAMBO RIVER
224213,669.68256,-37.22727,-37.495,147.24504,147.27,Dargo River at Lower Dargo Road,,wfs|awral|bjp|hrs|flood|kennard,VIC,669.68256,147.27,-37.495,,657.14802,147.2725,-37.495,147.24629,-37.22851,282.9068,49.50914,99.8263,1123.9447,247.52209,1904.80798,MITCHELL RIVER (VIC)
224214,439.91026,-37.37347,-37.495,147.42277,147.39,Wentworth River at Tabberabbera,,wfs|awral|hrs|flood|kennard,VIC,439.91026,147.39,-37.495,,432.25968,147.3925,-37.4975,147.42402,-37.37472,311.241,26.44481,55.56572,916.23926,258.88708,1519.95703,MITCHELL RIVER (VIC)
